0 FENGYUN 1C DEB
1 32187U 99025CUH 13281.19297980  .00000199  00000-0  29296-3 0  5396
2 32187 099.4818 174.8743 0299401 124.6065 025.7982 13.48064044307912
0 FENGYUN 1C DEB
1 32187U 99025CUH 13283.19663003  .00000221  00000-0  32062-3 0  5404
2 32187 099.4818 176.7784 0299428 119.6155 029.5683 13.48065434308185
0 FENGYUN 1C DEB
1 32187U 99025CUH 13285.56519741  .00000255  00000-0  36287-3 0  5417
2 32187 099.4817 179.0292 0299460 113.7195 004.3000 13.48066345308501
0 FENGYUN 1C DEB
1 32187U 99025CUH 13287.56905216  .00000301  00000-0  41934-3 0  5423
2 32187 099.4815 180.9334 0299476 108.7305 009.0765 13.48067554308773
0 FENGYUN 1C DEB
1 32187U 99025CUH 13289.57273330  .00000298  00000-0  41530-3 0  5439
2 32187 099.4811 182.8376 0299493 103.7409 013.0201 13.48069081309043
0 FENGYUN 1C DEB
1 32187U 99025CUH 13292.17747292  .00000289  00000-0  40414-3 0  5443
2 32187 099.4807 185.3129 0299496 097.2580 053.9371 13.48070862309390
0 FENGYUN 1C DEB
1 32187U 99025CUH 13294.18127914  .00000285  00000-0  39871-3 0  5451
2 32187 099.4807 187.2170 0299502 092.2695 058.5100 13.48072302309669
